STARLINK-33554          
1 62103U 24220R   25269.88968240  .00035458  00000+0  12909-2 0  9998
2 62103  43.0009  50.2954 0001960 281.5786  78.4846 15.27604206 47908
STARLINK-33555          
1 62104U 24220S   25269.46539372  .00050924  00000+0  18451-2 0  9996
2 62104  43.0028  53.1236 0002448 286.7240  73.3343 15.27618244 48048
STARLINK-33559          
1 62107U 24220V   25269.72307696  .00036175  00000+0  13167-2 0  9991
2 62107  43.0063  51.6222 0003354 287.8202  72.2284 15.27601287 48114
STARLINK-33553          
1 62108U 24220W   25269.45381936  .00057802  00000+0  20905-2 0  9999
2 62108  42.9980  53.0329 0001314 208.5026 151.5754 15.27628034 48070
STARLINK-33556          
1 62109U 24220X   25269.70123276  .00045362  00000+0  16456-2 0  9993
2 62109  43.0051  51.4633 0002544 280.9323  79.1242 15.27622939 48134
STARLINK-33551          
1 62110U 24220Y   25269.45768049  .00048508  00000+0  17596-2 0  9991
2 62110  43.0055  53.0701 0002800 283.9972  76.0568 15.27599871 48070
STARLINK-32311          
1 62114U 24222A   25269.44873657  .00055003  00000+0  19907-2 0  9994
2 62114  43.0020 328.7500 0002323 268.7848  91.2737 15.27623004 47968
STARLINK-32470          
1 62115U 24222B   25270.24059799  .00036093  00000+0  13146-2 0  9995
2 62115  43.0016 339.0799 0001311 230.7597 129.3138 15.27581881 47903
STARLINK-32502          
1 62116U 24222C   25270.19706134  .00051468  00000+0  18654-2 0  9994
2 62116  43.0031 339.6154 0000053 291.1687  68.9159 15.27604782 47801
STARLINK-32521          
1 62117U 24222D   25270.24877381  .00046233  00000+0  16777-2 0  9992
2 62117  43.0034 335.5655 0001816 282.2507  77.8141 15.27606423 47798
STARLINK-32549          
1 62118U 24222E   25270.22646331  .00055921  00000+0  20256-2 0  9991
2 62118  43.0015 338.9753 0001778 258.1215 101.9437 15.27591607 47816
STARLINK-32535          
1 62119U 24222F   25269.68215018  .00057684  00000+0  20859-2 0  9991
2 62119  43.0033 339.1713 0001321 283.4579  76.6126 15.27635348 47717
STARLINK-32548          
1 62120U 24222G   25269.49193919  .00051309  00000+0  18604-2 0  9990
2 62120  43.0005 343.7822 0001339 282.6432  77.4270 15.27592406 47646
STARLINK-32525          
1 62121U 24222H   25270.23288934  .00055950  00000+0  20268-2 0  9992
2 62121  43.0006 339.0223 0001217 249.0248 111.0473 15.27589795 47768
STARLINK-32628          
1 62122U 24222J   25270.25088111  .00034802  00000+0  12672-2 0  9993
2 62122  43.0012 339.1519 0001734 282.9312  77.1346 15.27607261 47925
STARLINK-32626          
1 62123U 24222K   25270.20476866  .00051335  00000+0  18601-2 0  9995
2 62123  43.0024 339.6744 0003750 287.5422  72.5020 15.27609463 47741
