[{"OBJECT_NAME":"STARLINK-33554","OBJECT_ID":"2024-220R","EPOCH":"2025-09-26T21:21:08.559360","MEAN_MOTION":15.27604206,"ECCENTRICITY":0.00019605,"INCLINATION":43.0009,"RA_OF_ASC_NODE":50.2954,"ARG_OF_PERICENTER":281.5786,"MEAN_ANOMALY":78.4846,"EPHEMERIS_TYPE":0,"CLASSIFICATION_TYPE":"U","NORAD_CAT_ID":62103,"ELEMENT_SET_NO":999,"REV_AT_EPOCH":4790,"BSTAR":0.0012908647,"MEAN_MOTION_DOT":0.00035458,"MEAN_MOTION_DDOT":0},{"OBJECT_NAME":"STARLINK-33555","OBJECT_ID":"2024-220S","EPOCH":"2025-09-26T11:10:10.017408","MEAN_MOTION":15.27618244,"ECCENTRICITY":0.0002448,"INCLINATION":43.0028,"RA_OF_ASC_NODE":53.1236,"ARG_OF_PERICENTER":286.724,"MEAN_ANOMALY":73.3343,"EPHEMERIS_TYPE":0,"CLASSIFICATION_TYPE":"U","NORAD_CAT_ID":62104,"ELEMENT_SET_NO":999,"REV_AT_EPOCH":4804,"BSTAR":0.001845116,"MEAN_MOTION_DOT":0.00050924,"MEAN_MOTION_DDOT":0},{"OBJECT_NAME":"STARLINK-33559","OBJECT_ID":"2024-220V","EPOCH":"2025-09-26T17:21:13.849344","MEAN_MOTION":15.27601287,"ECCENTRICITY":0.00033541,"INCLINATION":43.0063,"RA_OF_ASC_NODE":51.6222,"ARG_OF_PERICENTER":287.8202,"MEAN_ANOMALY":72.2284,"EPHEMERIS_TYPE":0,"CLASSIFICATION_TYPE":"U","NORAD_CAT_ID":62107,"ELEMENT_SET_NO":999,"REV_AT_EPOCH":4811,"BSTAR":0.0013166737,"MEAN_MOTION_DOT":0.00036175,"MEAN_MOTION_DDOT":0},{"OBJECT_NAME":"STARLINK-33553","OBJECT_ID":"2024-220W","EPOCH":"2025-09-26T10:53:29.992704","MEAN_MOTION":15.27628034,"ECCENTRICITY":0.00013144,"INCLINATION":42.998,"RA_OF_ASC_NODE":53.0329,"ARG_OF_PERICENTER":208.5026,"MEAN_ANOMALY":151.5754,"EPHEMERIS_TYPE":0,"CLASSIFICATION_TYPE":"U","NORAD_CAT_ID":62108,"ELEMENT_SET_NO":999,"REV_AT_EPOCH":4807,"BSTAR":0.0020905409,"MEAN_MOTION_DOT":0.00057802,"MEAN_MOTION_DDOT":0},{"OBJECT_NAME":"STARLINK-33556","OBJECT_ID":"2024-220X","EPOCH":"2025-09-26T16:49:46.510464","MEAN_MOTION":15.27622939,"ECCENTRICITY":0.00025443,"INCLINATION":43.0051,"RA_OF_ASC_NODE":51.4633,"ARG_OF_PERICENTER":280.9323,"MEAN_ANOMALY":79.1242,"EPHEMERIS_TYPE":0,"CLASSIFICATION_TYPE":"U","NORAD_CAT_ID":62109,"ELEMENT_SET_NO":999,"REV_AT_EPOCH":4813,"BSTAR":0.0016456189,"MEAN_MOTION_DOT":0.00045362,"MEAN_MOTION_DDOT":0},{"OBJECT_NAME":"STARLINK-33551","OBJECT_ID":"2024-220Y","EPOCH":"2025-09-26T10:59:03.594336","MEAN_MOTION":15.27599871,"ECCENTRICITY":0.00028008,"INCLINATION":43.0055,"RA_OF_ASC_NODE":53.0701,"ARG_OF_PERICENTER":283.9972,"MEAN_ANOMALY":76.0568,"EPHEMERIS_TYPE":0,"CLASSIFICATION_TYPE":"U","NORAD_CAT_ID":62110,"ELEMENT_SET_NO":999,"REV_AT_EPOCH":4807,"BSTAR":0.0017595644,"MEAN_MOTION_DOT":0.00048508,"MEAN_MOTION_DDOT":0},{"OBJECT_NAME":"STARLINK-32311","OBJECT_ID":"2024-222A","EPOCH":"2025-09-26T10:46:10.839648","MEAN_MOTION":15.27623004,"ECCENTRICITY":0.00023234,"INCLINATION":43.002,"RA_OF_ASC_NODE":328.75,"ARG_OF_PERICENTER":268.7848,"MEAN_ANOMALY":91.2737,"EPHEMERIS_TYPE":0,"CLASSIFICATION_TYPE":"U","NORAD_CAT_ID":62114,"ELEMENT_SET_NO":999,"REV_AT_EPOCH":4796,"BSTAR":0.0019907486,"MEAN_MOTION_DOT":0.00055003,"MEAN_MOTION_DDOT":0},{"OBJECT_NAME":"STARLINK-32470","OBJECT_ID":"2024-222B","EPOCH":"2025-09-27T05:46:27.666336","MEAN_MOTION":15.27581881,"ECCENTRICITY":0.00013111,"INCLINATION":43.0016,"RA_OF_ASC_NODE":339.0799,"ARG_OF_PERICENTER":230.7597,"MEAN_ANOMALY":129.3138,"EPHEMERIS_TYPE":0,"CLASSIFICATION_TYPE":"U","NORAD_CAT_ID":62115,"ELEMENT_SET_NO":999,"REV_AT_EPOCH":4790,"BSTAR":0.0013146325,"MEAN_MOTION_DOT":0.00036093,"MEAN_MOTION_DDOT":0},{"OBJECT_NAME":"STARLINK-32502","OBJECT_ID":"2024-222C","EPOCH":"2025-09-27T04:43:46.099776","MEAN_MOTION":15.27604782,"ECCENTRICITY":5.33e-6,"INCLINATION":43.0031,"RA_OF_ASC_NODE":339.6154,"ARG_OF_PERICENTER":291.1687,"MEAN_ANOMALY":68.9159,"EPHEMERIS_TYPE":0,"CLASSIFICATION_TYPE":"U","NORAD_CAT_ID":62116,"ELEMENT_SET_NO":999,"REV_AT_EPOCH":4780,"BSTAR":0.0018654034,"MEAN_MOTION_DOT":0.00051468,"MEAN_MOTION_DDOT":0},{"OBJECT_NAME":"STARLINK-32521","OBJECT_ID":"2024-222D","EPOCH":"2025-09-27T05:58:14.057184","MEAN_MOTION":15.27606423,"ECCENTRICITY":0.00018166,"INCLINATION":43.0034,"RA_OF_ASC_NODE":335.5655,"ARG_OF_PERICENTER":282.2507,"MEAN_ANOMALY":77.8141,"EPHEMERIS_TYPE":0,"CLASSIFICATION_TYPE":"U","NORAD_CAT_ID":62117,"ELEMENT_SET_NO":999,"REV_AT_EPOCH":4779,"BSTAR":0.0016777385,"MEAN_MOTION_DOT":0.00046233,"MEAN_MOTION_DDOT":0},{"OBJECT_NAME":"STARLINK-32549","OBJECT_ID":"2024-222E","EPOCH":"2025-09-27T05:26:06.429984","MEAN_MOTION":15.27591607,"ECCENTRICITY":0.00017785,"INCLINATION":43.0015,"RA_OF_ASC_NODE":338.9753,"ARG_OF_PERICENTER":258.1215,"MEAN_ANOMALY":101.9437,"EPHEMERIS_TYPE":0,"CLASSIFICATION_TYPE":"U","NORAD_CAT_ID":62118,"ELEMENT_SET_NO":999,"REV_AT_EPOCH":4781,"BSTAR":0.0020255728,"MEAN_MOTION_DOT":0.00055921,"MEAN_MOTION_DDOT":0},{"OBJECT_NAME":"STARLINK-32535","OBJECT_ID":"2024-222F","EPOCH":"2025-09-26T16:22:17.775552","MEAN_MOTION":15.27635348,"ECCENTRICITY":0.00013215,"INCLINATION":43.0033,"RA_OF_ASC_NODE":339.1713,"ARG_OF_PERICENTER":283.4579,"MEAN_ANOMALY":76.6126,"EPHEMERIS_TYPE":0,"CLASSIFICATION_TYPE":"U","NORAD_CAT_ID":62119,"ELEMENT_SET_NO":999,"REV_AT_EPOCH":4771,"BSTAR":0.0020858885,"MEAN_MOTION_DOT":0.00057684,"MEAN_MOTION_DDOT":0},{"OBJECT_NAME":"STARLINK-32548","OBJECT_ID":"2024-222G","EPOCH":"2025-09-26T11:48:23.546016","MEAN_MOTION":15.27592406,"ECCENTRICITY":0.00013399,"INCLINATION":43.0005,"RA_OF_ASC_NODE":343.7822,"ARG_OF_PERICENTER":282.6432,"MEAN_ANOMALY":77.427,"EPHEMERIS_TYPE":0,"CLASSIFICATION_TYPE":"U","NORAD_CAT_ID":62120,"ELEMENT_SET_NO":999,"REV_AT_EPOCH":4764,"BSTAR":0.0018604077,"MEAN_MOTION_DOT":0.00051309,"MEAN_MOTION_DDOT":0},{"OBJECT_NAME":"STARLINK-32525","OBJECT_ID":"2024-222H","EPOCH":"2025-09-27T05:35:21.638976","MEAN_MOTION":15.27589795,"ECCENTRICITY":0.00012177,"INCLINATION":43.0006,"RA_OF_ASC_NODE":339.0223,"ARG_OF_PERICENTER":249.0248,"MEAN_ANOMALY":111.0473,"EPHEMERIS_TYPE":0,"CLASSIFICATION_TYPE":"U","NORAD_CAT_ID":62121,"ELEMENT_SET_NO":999,"REV_AT_EPOCH":4776,"BSTAR":0.0020267527,"MEAN_MOTION_DOT":0.0005595,"MEAN_MOTION_DDOT":0},{"OBJECT_NAME":"STARLINK-32628","OBJECT_ID":"2024-222J","EPOCH":"2025-09-27T06:01:16.127904","MEAN_MOTION":15.27607261,"ECCENTRICITY":0.00017344,"INCLINATION":43.0012,"RA_OF_ASC_NODE":339.1519,"ARG_OF_PERICENTER":282.9312,"MEAN_ANOMALY":77.1346,"EPHEMERIS_TYPE":0,"CLASSIFICATION_TYPE":"U","NORAD_CAT_ID":62122,"ELEMENT_SET_NO":999,"REV_AT_EPOCH":4792,"BSTAR":0.0012671841,"MEAN_MOTION_DOT":0.00034802,"MEAN_MOTION_DDOT":0},{"OBJECT_NAME":"STARLINK-32626","OBJECT_ID":"2024-222K","EPOCH":"2025-09-27T04:54:52.012224","MEAN_MOTION":15.27609463,"ECCENTRICITY":0.00037507,"INCLINATION":43.0024,"RA_OF_ASC_NODE":339.6744,"ARG_OF_PERICENTER":287.5422,"MEAN_ANOMALY":72.502,"EPHEMERIS_TYPE":0,"CLASSIFICATION_TYPE":"U","NORAD_CAT_ID":62123,"ELEMENT_SET_NO":999,"REV_AT_EPOCH":4774,"BSTAR":0.0018601323,"MEAN_MOTION_DOT":0.00051335,"MEAN_MOTION_DDOT":0}]
